Name,Address,Phone Number,Website,Latitude,Longitude
Zenith arte e saude odontologia alphaville dentista,"Alameda Madeira, 258 - Alphaville Industrial, Barueri - SP, 06454-010",(11) 96026-1306,https://zenith-arte-e-saude-odontologia-alphaville.negocio.site/?utm_source=gmb&utm_medium=referral,-23.495161,-46.851292
OdontoCompany Freguesia do �,"Av. Itaberaba, 3654 - Itaberaba, São Paulo - SP, 02739-000",(11) 3989-8637,https://odontocompany.com/saopaulofreguesiadoo,-23.477764999999998,-46.681644
Consult�rio odontologico,"Av. Mutinga, 1914 - Vila Pirituba, São Paulo - SP, 05110-000",0,0,-23.484194799999997,-46.744109099999996
Cl�nica E.R.M Odontologia,"R. Maria Lúcia Duarte, 98 - Vila Pirituba, São Paulo - SP, 05172-000",(11) 3903-8205,http://www.ermodonto.com.br/,-23.4831249,-46.741761
Dentista Pirituba,"Av. Santa Mônica, 644 - Jardim Santa Monica, São Paulo - SP, 05171-000",(11) 98997-7609,http://www.dentistapirituba.com.br/,-23.4780664,-46.7476698
Dr. F�bio Saigh - Dentista,"Av. Mutinga, 2050 - Jardim Santo Elias, São Paulo - SP, 05110-000",(11) 3904-2133,https://www.instagram.com/saighclinica/,-23.484762399999997,-46.7450301
Odontologia Dra. Iara Regina Passos Toledo,"Av. Mutinga, 1451 - Sala 02 - Vila Pirituba, São Paulo - SP, 05110-000",(11) 3906-6539,0,-23.485504,-46.740480600000005
Estrela Cadente Odontologia Integrada,"Av. Agenor Couto de Magalhães, 71 - Jardim Regina, São Paulo - SP, 02675-031",(11) 2369-3894,0,-23.4844948,-46.740917
Dra.Daniela Satie Yokogawa-Dentista,"Av. Mutinga, 2238 - Sala 02 - Vila Pirituba, São Paulo - SP, 05110-000",(11) 3902-4293,0,-23.4857723,-46.746518599999995
Dentista Dr.Marcelo Pincelli Alves,"Av. Mutinga, 1606 - Jardim Santo Elias, São Paulo - SP, 05110-000",(11) 3901-3125,0,-23.4844379,-46.7414008
Cl�nica Ana Crespi - Odontologia e Est�tica,"Av. Santa Mônica, 454 - Vila Pirituba, São Paulo - SP, 05171-000",(11) 3902-6121,http://ac-odontologia-e-estetica.negocio.site/,-23.4797947,-46.7476128
Dra. Meire Lucia Prati,"Av. Mutinga, 1582 - Sala 02 - Vila Pirituba, São Paulo - SP, 05110-000",(11) 3906-0114,0,-23.484473899999998,-46.741181399999995
Dra. Biajira B. S de Lima - Dentista,"Av. Mutinga, 2281 - Vila Pirituba, São Paulo - SP, 05110-000",(11) 3904-5856,0,-23.486156899999997,-46.7467478
Dentz Pirituba - Cl�nica Odontol�gica,"Av. Mutinga, 260 - Vila Pirituba, São Paulo - SP, 05154-000",(11) 99845-8372,http://www.rededentz.com.br/pirituba,-23.4885526,-46.7294589
Consult�rio Odontol�gico Dra Cristiane Dias,"Av. Mutinga, 2354 - sala 4 - Jardim Santo Elias, São Paulo - SP, 05110-000",(11) 2362-8803,0,-23.486358,-46.747527999999996
Sorridents Cl�nica Odontol�gica,"Av. Mutinga, 2266 - Jardim Santo Elias, São Paulo - SP, 05110-000",(11) 3904-5261,https://sorridents.com.br/parque-sao-domingos/,-23.4858749,-46.7467725
Dr. Fernando Lima Macambyra - Dentista,"Av. Mutinga, 1533 - Vila Pirituba, São Paulo - SP, 05110-000",(11) 2831-7710,0,-23.4851319,-46.7411436
IMPLANTES KOHAMA,"R. Jurubim, 53 - Pirituba, São Paulo - SP, 05170-100",(11) 97389-1218,0,-23.4853112,-46.746243299999996
RDA Odontologia Especializada,"Av. Mutinga, 585 - Vila Pirituba, São Paulo - SP, 05154-000",(11) 3906-6011,http://rdaodontologia.com.br/,-23.4882514,-46.732651999999995
Dr.Marcos Kengi Ito-Dentista,"Av. Mutinga, 2575 - Sala 01 - Vila Pirituba, São Paulo - SP, 05110-000",(11) 3906-9557,0,-23.488358899999998,-46.7483593
Dentista em Pirituba,"Av. do Anastácio, 1789 - Sobreloja - City América, São Paulo - SP, 05119-000",(11) 94779-1900,http://www.leonardopaiao.com.br/,-23.4932868,-46.737471500000005
Dentista Dra. Sueli Dias - Odontologia Integrada,"R. Arcangélica, 95 - Sala 06 - Vila Pirituba, São Paulo - SP, 02945-020",(11) 97738-0377,https://suelidiasodonto.negocio.site/,-23.4860977,-46.726942
Hospital da Pr�tese Dent�ria - Cl�nica de Especialidades Odontol�gicas,"Av. Santa Mônica, 644 sobreloja - Jardim Santa Monica, São Paulo - SP, 05171-000",(11) 3904-7318,http://www.hospitaldaprotesedentaria.com.br/,-23.4780722,-46.747665
Dra. Mary Schweitzer Gomes,"Av. Mutinga, 2281 - Vila Pirituba, São Paulo - SP, 05110-000",(11) 3904-5856,0,-23.4862055,-46.7467463
Kikuti Odontologia,"Av. Mutinga, 661 - Vila Pirituba, São Paulo - SP, 05154-000",(11) 3904-6768,https://kikutiodontologia.business.site/,-23.4882921,-46.733474
Odontologia Guion & Palaoro,"Av: Mutinga, 1249 - Sala 05 - Vila Mangalot, São Paulo - SP, 05110-000",(11) 3906-0591,https://www.facebook.com/odontologiaguionpalaoro/,-23.4865322,-46.738732899999995
Cl�nica Odontol�gica Fujiy,"Av. Raimundo Pereira de Magalhães, 3678 - Vila Pirituba, São Paulo - SP, 05145-200",(11) 3832-2504,0,-23.4951117,-46.7300075
Dentista Pirituba,"Av. Benedito Andrade, 450 - Pirituba, São Paulo - SP, 02936-000",(11) 3977-7335,https://sorridents.com.br/pirituba/,-23.4873521,-46.71630520000001
Cl�nica Dent�ria Pirituba (Dr. Neylor Marques),"Av. Benedito Andrade, 114 - Vila Pirituba, São Paulo - SP, 02936-000",(11) 3974-3676,0,-23.4881149,-46.719521
OdontoCompany Pirituba,"Av. Paula Ferreira, 2885 - Vila Pirituba, São Paulo - SP, 02915-100",(11) 3978-1550,http://www.odontocompany.com/,-23.4889427,-46.719616099999996
Dra.Vanessa Baena Ascencio-Dentista,"Av. Mutinga, 2665 - Sala 02 - Vila Pirituba, São Paulo - SP, 05110-000",(11) 3901-0078,0,-23.4888537,-46.7490394
seu dentista em pirituba,"Av. Santa Mônica - Jardim Santa Monica, São Paulo - SP, 02244-000",(11) 99188-6546,https://seu-dentista-em-pirituba.negocio.site/,-23.4781442,-46.7478924
Dra C�tia Menezes,"Av. Agenor Couto de Magalhães, 222 - Jardim Regina, São Paulo - SP, 05174-000",(11) 98762-3434,http://instagram.com/vanefelicio,-23.4826464,-46.7396277
Queens Odonto Cl�nica Odontologica Em Pirituba,"Rua Brigadeiro Henrique Fontenelle, 824 - Parque Sao Domingos, São Paulo - SP, 05125-001",(11) 4564-9854,http://www.queensodonto.com.br/,-23.5003301,-46.7389687
Dra. Maura Garcia Tomiatti,"Av. Mutinga, 1719 - Sala 4 - Vila Zulmira, São Paulo - SP, 05110-000",(11) 2872-1666,0,-23.484544,-46.7424032
Odontologia,"Avenida Mutinga, São Paulo - SP CEP 05154-000, São Paulo - SP, 05154-000",0,0,-23.4879398,-46.7346979
Dr. Fabricio Baccia Molina-Dentista,"Av. Mutinga, 184 - Sala 3 , Apartamento 3 - Vila Pirituba, São Paulo - SP, 05154-000",(11) 3904-8504,0,-23.4884125,-46.7288492
Dentista Consult�rio Dr. Gustavo Orlow,"Av. Santa Mônica, 700 - Sobreloja - Jardim Santa Monica, São Paulo - SP, 05171-000",(11) 2157-8611,https://m.facebook.com/dr.gustavoorlow/,-23.4776348,-46.747899499999995
Dra. Veronica Paz diaz pimentel - Dentista,"Av. Benedito Andrade, 642 - Vila Pirituba, São Paulo - SP, 02936-000",(11) 3992-4279,http://www.odontopimentel.com.br/,-23.4875121,-46.714594399999996
Dra. Luana Vital Pessoa,"Pirituba, R. Adalberto Kurt, 71 - Jardim Libano, São Paulo - SP, 05138-040",(11) 99359-5333,https://dra-luana-vital-pessoa.negocio.site/,-23.4875905,-46.730512999999995
Dr Ricardo Dias de Oliveira - Dentista,"Av. Paula Ferreira, 2476 - Vila Pirituba, São Paulo - SP, 02935-050",(11) 3998-8311,-23.490370199999997,-23.490370199999997,-46.715880899999995
Dr. Eduardo Possa da Agua,"Av. Mutinga, 3150 – 1º andar - Vila Pirituba, São Paulo - SP, 05110-000",(11) 3977-9964,0,-23.4920854,-46.751316599999996
Dr. Edgard dos Santos Pimentel- Dentista,"Av. Benedito Andrade, 642 - Vila Pirituba, São Paulo - SP, 02936-000",(11) 3992-4279,http://www.odontopimentel.com.br/,-23.487465,-46.7145613
Odonto Kelles,"Av. Benedito Andrade, 510 - Pirituba, São Paulo - SP, 01414-002",(11) 3992-4467,http://odontokelles.com.br/,-23.4873205,-46.7158781
Cl�nica Odontologica Dra. Magali H. Hiramoto-Dentista,"Av. Paula Ferreira, 2678C - Vila Pirituba, São Paulo - SP, 02916-000",(11) 3977-0082,0,-23.4893763,-46.7175522
Luiz Neto Odontologia Integrada,"Av. Mutinga, 1709 - Vila Zulmira, São Paulo - SP, 05110-000",(11) 91147-5249,https://www.luiznetoodontologia.com.br/,-23.484455399999998,-46.742428
Dr. Hilton Gomes Ferreira,"Av. Mutinga, 1582 - Sala 2 - Vila Pirituba, São Paulo - SP, 05110-000",(11) 3906-0114,-23.484473899999998,-23.484473899999998,-46.741181399999995
Dr. Tatsuo Noguchi - Dentista,"Av. Paula Ferreira, 2954 - Vila Pirituba, São Paulo - SP, 02916-000",(11) 3975-0060,0,-23.4883535,-46.720065399999996
Odonto Extra,"Av. Mutinga, 215 - Vila Pirituba, São Paulo - SP, 05154-000",0,0,-23.488855599999997,-46.7293057
Dr Edegar Takeshita-Dentista,"Av. Paula Ferreira, 2678 C - Vila Pirituba, São Paulo - SP, 02916-000",(11) 3992-3873,0,-23.4893215,-46.717517799999996
Consultorio Odontologico Dra. Marcia Teruya,"Av. Paula Ferreira, 3081 - sala03 - Vila Pirituba, São Paulo - SP, 02915-100",(11) 3972-5619,https://consultorio-odontologico-dra-marcia-teruya.negocio.site/?utm_source=gmb&utm_medium=referral,-23.4883526,-46.721115499999996
Consultório odontologico,"Av. Mutinga, 1914 - Vila Pirituba, São Paulo - SP, 05110-000",(11) 3904-2133,0,-23.4841889,-46.744108
Dr. Fábio Saigh - Dentista,"Av. Mutinga, 2050 - Jardim Santo Elias, São Paulo - SP, 05110-000",(11) 98997-7609,0,-23.4847624,-46.7450301
Dentista Pirituba,"Av. Santa Mônica, 644 - Jardim Santa Monica, São Paulo - SP, 05171-000",(11) 3903-8205,0,-23.47808,-46.74771579999999
Clínica E.R.M Odontologia,"R. Maria Lúcia Duarte, 98 - Vila Pirituba, São Paulo - SP, 05172-000",(11) 3906-6539,0,-23.4831513,-46.7417484
Odontologia Dra. Iara Regina Passos Toledo,"Av. Mutinga, 1451 - Sala 02 - Vila Pirituba, São Paulo - SP, 05110-000",(11) 3902-4293,0,-23.4854996,-46.7404754
Dra.Daniela Satie Yokogawa-Dentista,"Av. Mutinga, 2238 - Sala 02 - Vila Pirituba, São Paulo - SP, 05110-000",(11) 2369-3894,0,-23.4857723,-46.74651859999999
Estrela Cadente Odontologia Integrada,"Av. Agenor Couto de Magalhães, 71 - Jardim Regina, São Paulo - SP, 02675-031",(11) 99845-8372,0,-23.4844989,-46.740873
Dentz Pirituba - Clínica Odontológica,"Av. Mutinga, 260 - Vila Pirituba, São Paulo - SP, 05154-000",(11) 3901-3125,0,-23.4885526,-46.7294589
Dentista Dr.Marcelo Pincelli Alves,"Av. Mutinga, 1606 - Jardim Santo Elias, São Paulo - SP, 05110-000",(11) 2362-8803,0,-23.4844379,-46.7414008
Consultório Odontológico Dra Cristiane Dias,"Av. Mutinga, 2354 - sala 4 - Jardim Santo Elias, São Paulo - SP, 05110-000",(11) 3904-2133,0,-23.4863555,-46.74753949999999
IMPLANTES KOHAMA,"R. Jurubim, 53 - Pirituba, São Paulo - SP, 05170-100",(11) 97389-1218,0,-23.4853164,-46.7462453
Sorridents Clínica Odontológica,"Av. Mutinga, 2266 - Jardim Santo Elias, São Paulo - SP, 05110-000",(11) 3904-5261,0,-23.485926,-46.7467427
Dra. Biajira B. S de Lima - Dentista,"Av. Mutinga, 2281 - Vila Pirituba, São Paulo - SP, 05110-000",(11) 3904-5856,0,-23.4861842,-46.74672839999999
Dr. Fernando Lima Macambyra - Dentista,"Av. Mutinga, 1533 - Vila Pirituba, São Paulo - SP, 05110-000",(11) 2831-7710,0,-23.4850827,-46.7410869
RDA Odontologia Especializada,"Av. Mutinga, 585 - Vila Pirituba, São Paulo - SP, 05154-000",(11) 3906-6011,0,-23.4882362,-46.7326511
Dentista Dra. Sueli Dias - Odontologia Integrada,"R. Arcangélica, 95 - Sala 06 - Vila Pirituba, São Paulo - SP, 02945-020",(11) 97738-0377,0,-23.48617269999999,-46.72686719999999
Dr.Marcos Kengi Ito-Dentista,"Av. Mutinga, 2575 - Sala 01 - Vila Pirituba, São Paulo - SP, 05110-000",(11) 3906-9557,0,-23.4883436,-46.7483625
Dentista em Pirituba,"Av. do Anastácio, 1789 - Sobreloja - City América, São Paulo - SP, 05119-000",(11) 94779-1900,0,-23.493286,-46.7374669
Kikuti Odontologia,"Av. Mutinga, 661 - Vila Pirituba, São Paulo - SP, 05154-000",(11) 3904-6768,0,-23.4882082,-46.7334671
Dra. Meire Lucia Prati,"Av. Mutinga, 1582 - Sala 02 - Vila Pirituba, São Paulo - SP, 05110-000",(11) 3906-0114,0,-23.4845144,-46.7412181
Centro Odontológico Ikeda,"Av. Mutinga, 2276 - Sala 2 - Vila Pirituba, São Paulo - SP, 05110-000",(11) 94571-2946,0,-23.485948,-46.7467875
Dentista Pirituba,"Av. Benedito Andrade, 450 - Pirituba, São Paulo - SP, 02936-000",(11) 3977-7335,0,-23.487275,-46.7163221
Dr. Nelson Yoshio Kikuti - Dentista,"Av. Mutinga, 661 - Vila Pirituba, São Paulo - SP, 05154-000",(11) 3904-6768,0,-23.4882071,-46.7334823
OdontoCompany Pirituba,"Av. Paula Ferreira, 2885 - Vila Pirituba, São Paulo - SP, 02915-100",(11) 3978-1550,0,-23.4888736,-46.7195521
Clínica Odontológica Fujiy,"Av. Raimundo Pereira de Magalhães, 3678 - Vila Pirituba, São Paulo - SP, 05145-200",(11) 3832-2504,0,-23.4951433,-46.7300573
Odontologia Guion & Palaoro,"Av: Mutinga, 1249 - Sala 05 - Vila Mangalot, São Paulo - SP, 05110-000",(11) 3906-0591,0,-23.4865322,-46.7387329
Clínica Dentária Pirituba (Dr. Neylor Marques),"Av. Benedito Andrade, 114 - Vila Pirituba, São Paulo - SP, 02936-000",(11) 3974-3676,0,-23.4881505,-46.7195172
Dra.Vanessa Baena Ascencio - Dentista,"Av. Mutinga, 2665 - Sala 02 - Vila Pirituba, São Paulo - SP, 05110-000",(11) 3901-0078,0,-23.48882399999999,-46.74906199999999
Queens Odonto Clínica Odontologica Em Pirituba,"Rua Brigadeiro Henrique Fontenelle, 824 - Parque Sao Domingos, São Paulo - SP, 05125-001",(11) 4564-9854,0,-23.5003388,-46.73900209999999
Odontologia,"Avenida Mutinga, São Paulo - SP CEP 05154-000, São Paulo - SP, 05154-000",0,0,-23.4879398,-46.7346979
Hospital da Prótese Dentária - Clínica de Especialidades Odontológicas,"Av. Santa Mônica, 644 sobreloja - Jardim Santa Monica, São Paulo - SP, 05171-000",(11) 3904-7318,0,-23.4780865,-46.74771370000001
Dra Cátia Menezes,"Av. Agenor Couto de Magalhães, 222 - Jardim Regina, São Paulo - SP, 05174-000",(11) 98762-3434,0,-23.4826443,-46.7396279
Dra. Mary Schweitzer Gomes,"Av. Mutinga, 2281 - Vila Pirituba, São Paulo - SP, 05110-000",(11) 3904-5856,0,-23.4862055,-46.7467463
Dra. Maura Garcia Tomiatti,"Av. Mutinga, 1719 - Sala 4 - Vila Zulmira, São Paulo - SP, 05110-000",(11) 2872-1666,0,-23.4844317,-46.74235129999999
Dr. Fabricio Baccia Molina-Dentista,"Av. Mutinga, 184 - Sala 3 , Apartamento 3 - Vila Pirituba, São Paulo - SP, 05154-000",(11) 3904-8504,0,-23.488396,-46.7289475
Dra. Veronica Paz diaz pimentel - Dentista,"Av. Benedito Andrade, 642 - Vila Pirituba, São Paulo - SP, 02936-000",(11) 3992-4279,0,-23.4874771,-46.714594
Dr Ricardo Dias de Oliveira - Dentista,"Av. Paula Ferreira, 2476 - Vila Pirituba, São Paulo - SP, 02935-050",(11) 3998-8311,0,-23.4903702,-46.7158809
LINO ODONTO,"Av. Mutinga, 2559 - Jardim Santo Elias, São Paulo - SP, 05110-000",(11) 98656-6386,0,-23.4881121,-46.7481304
Dr. Eduardo Possa da Agua,"Av. Mutinga, 3150 - 1º andar - Vila Pirituba, São Paulo - SP, 05110-000",(11) 3977-9964,0,-23.4920854,-46.7513167
Dr. Edgard dos Santos Pimentel- Dentista,"Av. Benedito Andrade, 642 - Vila Pirituba, São Paulo - SP, 02936-000",(11) 3992-4279,0,-23.4875009,-46.7145617
Clínica Odontologica Dra. Magali H. Hiramoto-Dentista,"Av. Paula Ferreira, 2678C - Vila Pirituba, São Paulo - SP, 02916-000",(11) 3977-0082,0,-23.4893763,-46.7175522
Odonto Kelles,"Av. Benedito Andrade, 510 - Pirituba, São Paulo - SP, 01414-002",(11) 3992-4467,0,-23.4872701,-46.71587229999999
Oiff Odontologia,"Av. Paula Ferreira, 1652 - Vila Pirituba, São Paulo - SP, 02916-000",(11) 3976-0409,0,-23.4968617,-46.71227289999999
seu dentista em pirituba,"Av. Santa Mônica - Jardim Santa Monica, São Paulo - SP, 02244-000",(11) 99188-6546,0,-23.4781442,-46.7478924
Dra. Luana Vital Pessoa,"Pirituba, R. Adalberto Kurt, 71 - Jardim Libano, São Paulo - SP, 05138-040",(11) 99359-5333,0,-23.4875702,-46.730524
Dr. Tatsuo Noguchi - Dentista,"Av. Paula Ferreira, 2954 - Vila Pirituba, São Paulo - SP, 02916-000",(11) 3975-0060,0,-23.4883499,-46.7200639
Consultório Odontológico Dra. Renata Veiga,"Av. Paula Ferreira, 1579 - Vila Pirituba, São Paulo - SP, 02915-100",(11) 3975-9125,0,-23.4973785,-46.71179529999999
SOI - Soares Odontologia Integrada,"Av. Raimundo Pereira de Magalhães, 3376 - #3 - Vila Pirituba, São Paulo - SP, 05145-200",(11) 3832-8842,0,-23.496697,-46.72776249999999
Luiz Neto Odontologia Integrada,"Av. Mutinga, 1709 - Vila Zulmira, São Paulo - SP, 05110-000",0,0,-23.484381,-46.74238939999999
Dr. Hilton Gomes Ferreira,"Av. Mutinga, 1582 - Sala 2 - Vila Pirituba, São Paulo - SP, 05110-000",(11) 3906-0114,0,-23.4845144,-46.7412181
Leonardo Paião Odontologia,"Av. do Anastácio, 1789 - Sala 4 - City América, São Paulo - SP, 05119-000",(11) 94779-1900,0,-23.493286,-46.7374669
Dra. Cristina Morgado Barboza- Dentista,"Av. Paula Ferreira, 1398 - Sala 02 - Vila Pirituba, São Paulo - SP, 02916-000",(11) 3977-0210,0,-23.4986442,-46.7107021
Clínica Caixeta,"R. Domingos Moreira, 18 - Jardim Cidade Pirituba, São Paulo - SP, 02942-070",(11) 3974-4608,0,-23.4773343,-46.72065319999999
Corident,"Rua Uratinga, 152 - Vila Pirituba, São Paulo - SP, 02933-150",(11) 3975-5032,0,-23.4942119,-46.7129268
Patricia Aparecida Calderani,"R. Arruda da Câmara, 218 - Vila Pirituba, São Paulo - SP, 02935-120",(11) 3992-6006,0,-23.4869483,-46.714281
Sorridents Pirituba,"Av. Benedito Andrade, 405 - Vila Pereira Barreto, São Paulo - SP, 02936-000",(11) 3997-1717,0,-23.4872459,-46.71687049999999
Aqui Odontologia,"Av. Benedito Andrade, 358 - Sala 03 - Vila Pereira Barreto, São Paulo - SP, 02675-031",(11) 3452-1706,0,-23.4876992,-46.71722159999999
Consultorio Odontologico Dra. Marcia Teruya,"Av. Paula Ferreira, 3081 - sala03 - Vila Pirituba, São Paulo - SP, 02915-100",(11) 3972-5619,0,-23.4882652,-46.72121999999999
Dentista Ortodontia Clínico Geral,"Av. Mutinga, 2559 - Sala 01 - Jardim Mangalot, São Paulo - SP, 05135-120",(11) 3483-6232,0,-23.4881121,-46.7481304
Impla Doctors - Dra. Juliana,"Av. Paula Ferreira, 2476 - Vila Pirituba, São Paulo - SP, 02916-000",(11) 3998-8311,0,-23.4903702,-46.7158809
Amabi odontologia,"Praça Alves Barbosa, 23 - Vila Bonilha Nova, São Paulo - SP, 02935-140",(11) 2305-8297,0,-23.4890591,-46.71795760000001
Consultorio de Psicólogia Angélica Kovelis,"Av. Mutinga, 2354 - Sala 06 - Vila Pirituba, São Paulo - SP, 05110-000",(11) 99522-8438,0,-23.4863441,-46.74752760000001
Dr Vitor Eugenio Aoki - Dentista,"Av. Benedito Andrade, 510 - Vila Pirituba, São Paulo - SP, 02936-000",(11) 3992-4467,0,-23.4872701,-46.71587229999999
Clínica Happy Smile,"Rua Giovanni Narcisi, 65 - Sao Domingos, São Paulo - SP, 05159-360",(11) 94526-4224,0,-23.4896248,-46.75437679999999
Dr. Flavio Perreira - Dentista,"Av. Benedito Andrade, 54 - Vila Pirituba, São Paulo - SP, 02936-000",(11) 3974-3780,0,-23.4880835,-46.7201288
Dra Cristiane,"Av. Paula Ferreira, 2027 - Vila Pirituba, São Paulo - SP, 02915-000",(11) 3976-0595,0,-23.4941513,-46.7147482
Dra. Cláudia Cassarini,"Av. Mutinga, 2050 - Vila Pirituba, São Paulo - SP, 05110-000",(11) 3904-2133,0,-23.4847703,-46.7451507
Radiologia Odontológica Esmeralda,"Av. Mutinga, 864 - Vila Pirituba, São Paulo - SP, 05171-000",(11) 2495-8003,0,-23.49304679999999,-46.73751670000001
Odonto Extra,"Av. Mutinga, 215 - Vila Pirituba, São Paulo - SP, 05154-000",0,0,-23.488817,-46.7292977
ODONTO CLINICA MUTINGA DENTISTA ASSOCIADOS,"Av. Mutinga, 3150 - 1 ANDAR - Jardim Mutinga, São Paulo - SP, 05110-000",0,0,-23.4921056,-46.75133229999999
Celca Odontologia,"Av. do Anastácio, 1671 - Sala 01 - Parque Sao Domingos, São Paulo - SP, 05119-000",(11) 4323-1796,0,-23.4943215,-46.7370708
Dra Luana Vital Pessoa,"Av. do Anastácio, 1485 - Parque Sao Domingos, São Paulo - SP, 05119-000",(11) 3903-4467,0,-23.4958746,-46.736537
Ondonto lilas,"Av. Paula Ferreira, 1334 - Vila Pirituba, São Paulo - SP, 02914-000",0,0,-23.4991717,-46.7105447
Noma Odontologia,"Praça Brg. Alves Seco, 26 - Vila Pirituba, São Paulo - SP, 02936-080",(11) 3972-5464,0,-23.4866304,-46.7177357
OdontoNantes,"Av. Elísio Cordeiro de Siqueira, 867 - Jardim Santo Elias, São Paulo - SP, 05136-001",0,0,-23.4989191,-46.7472092
Dra. Renata Batista Rodrigues,"Av. Mutinga, 2697 - Vila Pirituba, São Paulo - SP, 05110-000",(11) 3902-4962,0,-23.4889293,-46.7493089
Consultório Odontologico,"Av. Paula Ferreira, 1578 - Vila Pereira Cerca, São Paulo - SP, 02916-000",(11) 3976-3316,0,-23.4972291,-46.7115252
Consultorio odontológico,"Tv. Francisco Angelieri, 184 - Jardim Libano, São Paulo - SP, 05154-000",0,0,-23.488536,-46.7289714
Consultório Odontológico - Dr. Osmar Correa Neto,"Av. Miguel de Castro, 1676 - Vila Pereira Barreto, São Paulo - SP, 02950-000",(11) 3979-1096,0,-23.471979,-46.7206256
Odontologia Carvalho - Dr. Caio Carvalho,"Rua Professor Belfort Roxo, 262 - Pirituba, São Paulo - SP, 02675-031",(11) 2767-2767,0,-23.4848486,-46.7167381
Consultório Dr.Alessandro Kelles.,"Av. Benedito Andrade, 510 - SAla 2 - Vila Pirituba, São Paulo - SP, 02936-000",(11) 2129-7550,0,-23.4872668,-46.7159078
Vanessa Oliveira Alves Odontologia,"R. Silvio Bonilha, 35 - Vila Pirituba, São Paulo - SP, 02914-110",(11) 95777-9024,0,-23.5026897,-46.71120849999999
Oliveira Marques Odontologia S S Limitad,"Av. Benedito Andrade, 405 - Vila Pirituba, São Paulo - SP, 02936-000",0,0,-23.4872135,-46.7168794
Consultório/Dentista Dr. Jairo Bueno,"Av. Benedito Andrade, 483 - Vila Pirituba, São Paulo - SP, 02936-000",(11) 3991-1306,0,-23.4866874,-46.7165502
Dr. Leandro Augusto Martins,"Av. Mutinga, 2600 - Jardim Santo Elias, São Paulo - SP, 05110-000",(11) 3589-4364,0,-23.4881122,-46.74858199999999
Dr. Renan Bak,"Av. Benedito Andrade, 114 A - Vila Pirituba, São Paulo - SP, 02936-000",(11) 3974-3676,0,-23.4880264,-46.7195397
Danilo Parra Odontologia,"Rua Dr. João Batista de Bernardes Lima, 59 - Pirituba, São Paulo - SP, 05141-000",(11) 97038-9503,0,-23.49137839999999,-46.73185650000001
J&M Odontologia dentista,"R. Venâncio Diniz Junqueira, 20 - Vila Jaraguá, São Paulo - SP, 05160-000",(11) 3903-5630,0,-23.48617909999999,-46.7564828
Dr. Pedro de Paula Pertence Neto,"Av. Mutinga, 2415 - Vila Zulmira, São Paulo - SP, 05170-120",(11) 3904-5140,0,-23.4869359,-46.7476126
Seu Dentista em Pirituba,anonimo,(11) 98997-7609,0,-23.5028476187726,-46.7760730250301
Dr. Carlos Maeda - Dentista,"Av. Mutinga, 2778 - Jardim Mutinga, São Paulo - SP, 05110-000",(11) 3901-0060,0,-23.4887517,-46.7486313
Dra Regina Lopes,"Av. Paula Ferreira, 1578 - Vila Pirituba, São Paulo - SP, 02916-000",(11) 3976-3316,0,-23.4971592,-46.71161429999999
Dentista,"Av. Elísio Cordeiro de Siqueira, 689 - Jardim Santo Elias, São Paulo - SP, 05136-001",(11) 3904-3380,0,-23.5008392,-46.74764379999999
Matsubara Odontologia - City América,"Av. do Anastácio, 1809 - City América, São Paulo - SP, 05119-000",(11) 95114-6441,0,-23.4930563,-46.7375152
Cirurgiã Dentista - Arlene D.M.E Panachão,"Rua Tenente Sylvio Fleming, 25 - 01 - Vila Pirituba, São Paulo - SP, 02935-090",(11) 3978-2422,0,-23.4885237,-46.7193953
OdontoKa+ especialistas em fazer você sorrir,"Av. Elísio Cordeiro de Siqueira, 1029 - Jardim Santo Elias, São Paulo - SP, 05136-001",(11) 3902-5866,0,-23.4970095,-46.7470946
Odontomais,"Av. Benedito Andrade, 380 - Vila Pereira Barreto, São Paulo - SP, 02936-000",(11) 2369-1302,0,-23.4875613,-46.7169417
Consultório Odontológico,"Estr. das Taipas, 695 - Jaragua, São Paulo - SP, 02991-000",(11) 3943-3885,0,-23.4500494,-46.73552229999999
Consultório Odontológico Dr.Victor C. Rodrigues,"Rua Brigadeiro Henrique Fontenelle, 769 - Parque Sao Domingos, São Paulo - SP, 05125-000",(11) 4328-6486,0,-23.5008232,-46.7391625
Consultorio Odontologico,"R. Tomé de Almeida e Oliveira, 575 - Vila Zat, São Paulo - SP, 02976-190",(11) 95989-8092,0,-23.4727576,-46.7144653
Lopo Odontologia e Estética,"Av. Raimundo Pereira de Magalhães, 4434 - Jardim Iris, São Paulo - SP, 05145-200",(11) 2306-4899,0,-23.4899845,-46.7302741
Dentista,"R. Pastoril de Almenara, 28 - Parque Panamericano, São Paulo - SP, 02993-040",(11) 3944-8030,0,-23.4495994,-46.73458180000001
Clínica Rizzo Odontologia,"R. Turvânia, 203 - Jaraguá, São Paulo - SP, 05181-200",(11) 3941-2203,0,-23.455751,-46.7401878
Dra. Ana Paula Fineto,"Av. Paula Ferreira, 2767 - sala 5 - Vila Pirituba, São Paulo - SP, 02915-001",(11) 3972-0188,0,-23.4892949,-46.7183082
Ueda Mendelson Odontologia,"Av. Benedito Andrade, 349 - Vila Pirituba, São Paulo - SP, 02936-000",(11) 3971-9491,0,-23.4874381,-46.7173256
Dr. Carlos Luis M. Soares-Dentista,"Av. Raimundo Pereira de Magalhães, 3376 - Jardim Felicidade (Zona Norte), São Paulo - SP, 05145-200",(11) 3832-8842,0,-23.4966956,-46.7277906
consultório Odontológico,"Av. Elísio Cordeiro de Siqueira, 689 - Jardim Santo Elias, São Paulo - SP, 05136-001",0,0,-23.5008442,-46.74764559999999
Consultório Dra Fernanda Spadim,"Av. do Anastácio, 1485 - City América, São Paulo - SP, 05119-000",(11) 3467-0699,0,-23.4958909,-46.7365307
SA Odontologia,"Av. Mutinga, 5178 - Vila Piaui, São Paulo - SP, 05110-000",(11) 3621-2880,0,-23.5055413,-46.75916749999999
Dra. Selma Almas,"Av. Raimundo Pereira de Magalhães, 12675 - sala 3 - Pirituba, São Paulo - SP, 02989-100",(11) 3942-5729,0,-23.4322371,-46.72038739999999
Mezzodonto,"R. Elísio da Rocha Passos, 37 - Chácara Inglesa, São Paulo - SP, 05142-160",(11) 3641-0788,0,-23.4947951,-46.7270719
Dr. Rogério - Dentista,"Av. Mutinga, 4790 - Jardim Santo Elias, São Paulo - SP, 05110-015",0,0,-23.5024866,-46.7571727
Happy Dent's Odontologia,"1181 B - Estr. Turística do Jaraguá, 5 - Vila Jaraguá, São Paulo - SP, 05161-000",(11) 97820-2100,0,-23.4842015,-46.7554166
Ascent Odontologia - Consultório Odontológico,"Av. Cândido Portinari, 323 - Vila Jaguara, São Paulo - SP, 05114-001",(11) 3571-8851,0,-23.5081394,-46.7500166
Karina Machado Silva,"Av. Elísio Cordeiro de Siqueira, 1210 - Jardim Santo Elias, São Paulo - SP, 05136-000",(11) 3902-5866,0,-23.4955164,-46.74640629999999
Clínica Solution - Odontologia Integrada,"Rua Emílio Colella, 52 - Sala 02 - Parque Sao Domingos, São Paulo - SP, 05126-130",(11) 3901-5616,0,-23.4999979,-46.73953679999999
JP Clínica Integrada Odontológica,"Rua Conde de Resende, 27 - Vila Pereira Barreto, São Paulo - SP, 02919-090",(11) 3975-9902,0,-23.490311,-46.7162495
Dentistas,"Av. Jornalista Paulo Zingg, 1384 - Jardim Jaragua (Sao Domingos), São Paulo - SP, 05157-030",0,0,-23.4879831,-46.75782059999999
Clínica Odontológica,"Av. Elísio Teixeira Leite, 1489 - Vila Cruz das Almas, São Paulo - SP, 02801-000",(11) 3476-0416,0,-23.48111149999999,-46.70145939999999
AFAX ODONTOLOGIA ESPECIALIZADA,"Sobreloja, R. Cecília Calovini, 441A - Vila Zat, São Paulo, 02976-000",(11) 97299-0921,0,-23.4802962,-46.7133668
Família Sorriso,"R. Joaquim Oliveira Freitas, 1270 - Vila Mangalot, São Paulo - SP, 05133-002",(11) 3909-8587,0,-23.4963932,-46.7457109
GEOS-Grupos de Estudos Odontológicos,"Rua Luis Elias Attiê, 489 - Parque Sao Domingos, São Paulo - SP, 05127-020",(11) 3904-4774,0,-23.4996859,-46.7388899
Odontologia Dra Juliana,"R. Lino Pinto dos Santos, 18 - Jardim Felicidade (Zona Oeste), São Paulo - SP, 05143-000",3645-3447,0,-23.4961115,-46.7256717
Clínica Integrada Pirituba,"Rua Lord Clemente Attlee, 85 - Chácara Inglesa, São Paulo - SP, 05142-020",(11) 3836-9314,0,-23.4957294,-46.72825040000001
Dentistas Jaraguá,"Estr. das Taipas, 703 - Jardim Rincão, São Paulo - SP, 02991-000",(11) 3928-4533,0,-23.4499481,-46.73549
JoGi Odontologia,"Av. Jornalista Paulo Zingg, 1384 - Jardim Jaragua (Sao Domingos), São Paulo - SP, 05157-030",(11) 96762-7405,0,-23.4879831,-46.75782059999999
Dra. Barbara C.S Cotrin,"Av. Raimundo Pereira de Magalhães, 3376 - Vila Pirituba, São Paulo - SP, 05145-200",(11) 3832-8842,0,-23.4966876,-46.7278025
SOI Soares Odontologia Integrada,"Av. Raimundo Pereira de Magalhães, 3376 - Jardim Iris, São Paulo - SP, 02675-031",(11) 3832-8842,0,-23.4966956,-46.7277906
Consultório Dra Miriam Dongo,"Estr. das Taipas, 598 - Jaragua, São Paulo - SP, 02991-000",(11) 2809-8757,0,-23.4509487,-46.7350708
Innova odontologia moderna,"Av. Elísio Cordeiro de Siqueira, 384 - Jardim Santo Elias, São Paulo - SP, 05136-001",(11) 96572-4984,0,-23.5038724,-46.7479488
Consultório Odontológico Dra. Andressa Soquete,"Av. Elísio Teixeira Leite, 1379 - Freguesia do Ó, São Paulo - SP, 02801-000",(11) 4172-3574,0,-23.4820379,-46.7015969
Consultório Dentário,"Av. Dep. Cantídio Sampaio, 6849 - Vila Souza, São Paulo - SP, 02860-001",0,0,-23.4344837,-46.7191102
Dra Ana Cristina Neves Martins,"Av. Benedito Andrade, 269 - Sala 05 - Vila Barreto, São Paulo - SP, 02936-000",(11) 3425-7778,0,-23.4876612,-46.7180718
Dentista,"R. Parapuã, 492 - Freguesia do Ó, São Paulo - SP, 02831-000",0,0,-23.4803111,-46.6915022
Dentista,"Av. Dep. Cantídio Sampaio - Vila Souza, São Paulo - SP, 02860-001",0,0,-23.4417322,-46.7076515
Clínica Rigoni,"Rua Padre Anibal Difrancia, 182 - Jardim Mangalot, São Paulo - SP, 05135-160",(11) 3903-1896,0,-23.4906742,-46.74960369999999
Dentistas,"Av. Elísio Teixeira Leite, 475 - Freguesia do Ó, São Paulo - SP, 02801-000",(11) 3991-0585,0,-23.4887368,-46.69761260000001
Gottardo Odontologia,"Rua Paúva, 252 - Vila Jaguara, São Paulo - SP, 05116-000",(11) 3621-9866,0,-23.5101691,-46.7478645
Sarni & Naum Jacob Clínica Odontológica,"Av. Elísio Teixeira Leite, 7173 - Sítio Morro Grande, São Paulo - SP, 02675-031",-46.717659,0,-23.4372207,-46.717659
Marcon Centro Odontológico,"R. Vig. Godói, 08 - Sala 2 - Vila Zat, São Paulo - SP, 02976-080",(11) 3976-9277,0,-23.4813851,-46.7163554
Clínica Medica Mutinga,"Av. Mutinga, 715 - Vila Pirituba, São Paulo - SP, 05110-000",(11) 3902-5515,0,-23.4881193,-46.7340317
"Odontologia, Implantes e Ortodontia","R. Francisco Jorge Maciel, 103 - Vila Mangalot, São Paulo - SP, 05133-050",(11) 3904-8374,0,-23.495497,-46.7461186
Dra. Alice T. Murakami,"Av. Fuad Lutfalla, 820 - Vila Maria Trindade, São Paulo - SP, 02964-000",0,0,-23.4833334,-46.7083118
clinodonto daniel cabral,"Av. Benedito Andrade, 450 - Vila Pirituba, São Paulo - SP, 02936-000",(11) 3977-7335,0,-23.487275,-46.7163221
Dentista 3Wa,"R. João Saldanha, 132 - Parque Nações Unidas, São Paulo - SP, 02996-185",0,0,-23.4366733,-46.7439796
Consultório Dr Fernando Cerbara,"R. Rio Verde, 1798 - Vila Bruna, São Paulo - SP, 02934-000",(11) 3975-4315,0,-23.4895422,-46.7112236
Odontologia São Paulo,"R. Parapuã, 2082 - Brasilândia, São Paulo - SP, 02831-001",(11) 3922-9319,0,-23.4690259,-46.6954576
Óptica Apollon (Carrefour Pirituba),"Av. Mutinga, 1300 - Loja 10 - Vila Pirituba, São Paulo - SP, 05110-000",(11) 99198-4422,0,-23.4857991,-46.7389642
H.L.ODONTOLOGIA,"Rua Dr. Joy Arruda, 101 - Vila Zat, São Paulo - SP, 02975-000",(11) 93146-7622,0,-23.4790209,-46.7130686
Dr. Jair A. Silva - Implantes Dentais,"R. José Mauro de Vasconcelos, 192 - Sala 05 - Jardim Pinheiros, São Paulo - SP, 05138-240",(11) 99565-3668,0,-23.484276,-46.735792
Odontopediatria Lapa,"NÂO Aceitamos CONVÊNIOS - R. Monteiro de Melo, 448 - Lapa, São Paulo - SP, 05050-000",(11) 3499-0981,0,-23.5254261,-46.7031549
Sorridents Pico do Jaraguá,"Estr. das Taipas, 939 - Térreo - Parque Panamericano, São Paulo - SP, 02991-000",(11) 3941-8919,0,-23.447985,-46.7350225
Dra. Maira Andruskevicius,"Rua Professor Benedito Alarico de Castro Borelli, 194 - Parque Sao Domingos, São Paulo - SP, 05122-070",(11) 3832-1562,0,-23.50598979999999,-46.73489540000001
Centro Odontológico,"R. Parapuã, 1030 - Jardim do Tiro, São Paulo - SP, 02831-001",(11) 3921-6332,0,-23.4756881,-46.6904639
Dentistas 24 Horas. 25 Anos De Tradição,"R. Clélia, 1178 - Água Branca, São Paulo - SP, 05042-000",(11) 3673-2444,0,-23.5248808,-46.6939876
Dentistas,"Av. Itaberaba, 1999 - Itaberaba, São Paulo - SP, 02739-000",0,0,-23.4851063,-46.69178079999999
Coife Odonto Taipas - SP,"Av. Dep. Cantídio Sampaio, 5201 - Parada De Taipas, São Paulo - SP, 02860-040",(11) 91053-5558,0,-23.4422879,-46.7068915
Odontologia Especializada,"R. Prof. João Machado, 84 - Nossa Sra. do O, São Paulo - SP, 02927-000",(11) 3932-6759,0,-23.498774,-46.69891519999999
The Place English School,"Praça Alves Barbosa, 11 - Vila Pirituba, São Paulo - SP, 02935-140",(11) 2539-6111,0,-23.4891481,-46.71798
Dentistas,"Av. Dep. Cantídio Sampaio, 6484 - Vila Souza, São Paulo - SP, 02860-001",0,0,-23.4349306,-46.71706899999999
Sorridents Clínica Odontológica,"Av. Itaberaba, 831 - Nossa Sra. do O, São Paulo - SP, 02734-000",(11) 3975-0633,0,-23.4938898,-46.69727399999999
NEWDENTAL | Produtos odontológicos,"Av. Mutinga, 1565 - Jardim Santo Elias, São Paulo - SP, 05110-000",(11) 4114-1301,0,-23.48487159999999,-46.7413197
Centro Odontológico Água Branca,"Av. Francisco Matarazzo, 891 - Água Branca, São Paulo - SP, 05001-000",(11) 2865-4469,0,-23.5279403,-46.67134160000001
Sorria Mais,"Av. do Anastácio, 1809 - Parque Maria Domitila, São Paulo - SP, 05119-000",(11) 2366-2111,0,-23.4932814,-46.7374683
Consultório Odontológico - Dra. Aline Carolini Costa - CROSP-101078,"Av. Elísio Teixeira Leite, 1489 - Vila Brasilandia, São Paulo - SP, 02810-000",(11) 95106-6611,0,-23.4810683,-46.70145000000001
ODONTO PREMIERE CLINICA ODONTOLOGICA - DENTISTAS LAPA,"R. George Smith, 224 - Lapa, São Paulo - SP, 05074-010",(11) 2362-1892,0,-23.5196867,-46.705285
Dra Daiana Doria Odontologia Especializada,"R. Prof. João Machado, 457 - Freguesia do Ó, São Paulo - SP, 02927-000",(11) 3441-3290,0,-23.498774,-46.69891519999999
Clínica Médica Mutinga - Dr. Antonio Zanchetta,"Av. Mutinga, 715 - Vila Pirituba, São Paulo - SP, 05110-000",(11) 3902-5515,0,-23.4880919,-46.734021
Jackeline Carvalho Flores,"R. Severino Araújo de Lima, 86 - Freguesia do Ó, São Paulo - SP, 02927-040",(11) 3992-8035,0,-23.4978689,-46.7027543
Clindent - Especialista em Implantes e Aparelhos Ortodônticos,"Av. Itaberaba, 1872 - Freguesia do Ó, São Paulo - SP, 02734-000",(11) 2338-4615,0,-23.486156,-46.6922794
Amor Saúde - Pirituba SP,"Av. Dr. Felipe Pinel, 367 - Pirituba, São Paulo - SP, 02939-000",(11) 3976-5149,0,-23.4849627,-46.7289503
Clinica Calovini,"Av. do Anastácio, 285 - Parque Sao Domingos, São Paulo - SP, 05119-000",(11) 3644-6085,0,-23.5057983,-46.7335206
Dentistas,"R. Parapuã, 1755 - Brasilândia, São Paulo - SP, 02831-001",0,0,-23.4705158,-46.6930342
OdontoCompany,"Estr. das Taipas, 689 - Jaraguá, São Paulo - SP, 02991-000",(11) 5837-4389,0,-23.4500917,-46.7355289
...,"Av. Santa Marina, 2660 - Vila Albertina, São Paulo - SP, 02731-020",0,0,-23.5016383,-46.6948426
Centro Médico de Pirituba,"Av. Paula Ferreira, 3081 - Vila Pirituba, São Paulo - SP, 02915-100",(11) 3974-4038,0,-23.4883526,-46.7211155
Dra. Andrea Guimaraes Bimbati,"Rua Antonio Ayrosa, 918 - Vila Jaguara, São Paulo - SP, 05103-000",(11) 3625-1140,0,-23.5088964,-46.75343839999999
Odontoclinic Freguesia do Ò,"Av. Itaberaba, 844 - Freguesia do Ó, São Paulo - SP, 02734-000",(11) 3975-2500,0,-23.4938732,-46.69701180000001
Odontoclinic Lapa,"R. George Smith, 194 - Lapa, São Paulo - SP, 05074-010",(11) 3457-9055,0,-23.5193939,-46.7051333
Associação Paulista Cirurgiões Dentistas Distrital Pirituba Perus,"Rua Emílio Colella, 55 - Parque Sao Domingos, São Paulo - SP, 05126-130",(11) 3903-0956,0,-23.5001694,-46.7396845
Sorridents Vila dos Remédios,"Avenida dos Remédios, 642 Vila dos Remédios - Vila Santa Edwiges, SP, 05107-001",(11) 94776-9933,0,-23.5192249,-46.75309439999999
Clinica SIM - Unidade Pirituba,"R. Celso Vieira, 316 - Vila Pereira Barreto, São Paulo - SP, 02919-120",(11) 3976-5149,0,-23.4928585,-46.7176451
Odontologia Estética,"R. João Moreira, 104 - Parque Sao Domingos, São Paulo - SP, 05121-040",(11) 3832-5586,0,-23.5065701,-46.7306993
Laboratório de Prótese Dentária,"Rua Abraham Lincoln, 641 - Parque Sao Domingos, São Paulo - SP, 05123-000",(11) 2813-4778,0,-23.5050545,-46.7403578
SSO Saúde & Odontologia,"Av. Elísio Teixeira Leite, 7564 - Vila Nova Parada, São Paulo - SP, 02810-000",(11) 3135-6835,0,-23.4369731,-46.7174637
Dentz Cajamar Polvilho - Clínica Odontológica,"Av. Ten. Marques, 1847 - Polvilho, Cajamar - SP, 07750-000",(11) 93069-4378,0,-23.410008,-46.8399093
ODONTO BATISTA- ODONTOLOGIA HUMANIZADA,"Rua Manoel de Sousa Azevedo, 12 - Sítio Morro Grande, São Paulo - SP, 02809-005",(11) 3971-2358,0,-23.4717318,-46.70527250000001
Bortoletto Cosméticos - Pirituba,"Av. Raimundo Pereira de Magalhães, 12583 - Pirituba, São Paulo - SP, 02989-130",(11) 3943-6403,0,-23.4327655,-46.7201402
Fantin Odonto,"R. Amaral Gama, 333 - Santana, São Paulo - SP, 02013-000",(11) 2283-0006,0,-23.497352,-46.6274512
Dentista 24 Horas,"Av. Onze de Junho, 1199 - Vila Clementino, São Paulo - SP, 04041-054",(11) 5539-2196,0,-23.6015615,-46.64854829999999
Dra. Rosa Maria Merlos Silva Odontologia Especializada E Estética Orofacial,"R. Cotoxó, 787 - Pompeia, São Paulo - SP, 05021-001",(11) 99362-3258,0,-23.5337615,-46.68594650000001
Dra. Eliane R.S Candido,"Av. Paula Ferreira, 1344 - Vila Bonilha, São Paulo - SP, 02916-000",(11) 4384-3210,0,-23.4990545,-46.7105738
OdontoCompany,"R. Pres. Costa e Silva, 285 - Helena Maria, Osasco - SP, 06258-090",(11) 98842-2877,0,-23.5026747,-46.7907263
Dentz Alphaville - Clínica Odontológica,"Alameda Rio Negro, 161 - Prédio Comercial 3, Barueri - SP, 06454-000",(11) 3683-8753,0,-23.5037935,-46.8481216
Cia do Sorriso,"R. Antônio Agú, 909 - Centro, Osasco - SP, 06093-006",(11) 3919-0369,0,-23.5352081,-46.7799913
Odonto Pride,"Rua Orlando Peccicacco, 3 - Vila Perus, São Paulo - SP, 05204-000",(11) 3869-9053,0,-23.4061793,-46.755747
"Instituto CIOB implantes dentários, implante dentário, cursos , pesquisa","R. Coriolano, 1780 - Vila Romana, São Paulo - SP, 05047-002",0,0,-23.5256727,-46.7029045
Odonto pride,"3, Rua Orlando Peccicacco - Vila Perus, São Paulo",(11) 5854-1846,0,-23.4188693,-46.7546963
clínica odontológica,"Av. Maria Coelho Aguiar, 907 - sala 8 - Jardim São Luís, São Paulo - SP, 05843-180",(11) 3645-3330,0,-23.6520159,-46.7337204
Orthopride Lapa,"R Dr Cincinato Pomponet 174 sobreloja galeria Myx Center cor laranja - Lapa, São Paulo - SP, 05072-020",(11) 99362-3258,0,-23.5190917,-46.7027921
